COSMOS 1536             
1 14699U 84013A   17345.89457724  .00000897  00000-0  60771-4 0  9990
2 14699  82.5242 157.4727 0012862 163.2942 196.8711 15.05202536818664
